$$SOE
2460147.500000000, A.D. 2023-Jul-22 00:00:00.0000, -4.264744249272139E+08, -3.218415692332792E+08, -6.587722200981267E+07,
2460154.500000000, A.D. 2023-Jul-29 00:00:00.0000, -4.210472180593352E+08, -3.284215023875494E+08, -6.417357543943939E+07,
2460161.500000000, A.D. 2023-Aug-05 00:00:00.0000, -4.154886872817478E+08, -3.348989666385671E+08, -6.244990138510147E+07,
2460168.500000000, A.D. 2023-Aug-12 00:00:00.0000, -4.098001844172934E+08, -3.412716319207122E+08, -6.070667971141113E+07,
2460175.500000000, A.D. 2023-Aug-19 00:00:00.0000, -4.039830909112002E+08, -3.475371719055467E+08, -5.894439650691898E+07,
2460182.500000000, A.D. 2023-Aug-26 00:00:00.0000, -3.980388184731675E+08, -3.536932638051409E+08, -5.716354422563468E+07,
2460189.500000000, A.D. 2023-Sep-02 00:00:00.0000, -3.919688097687051E+08, -3.597375882684971E+08, -5.536462183711722E+07,
2460196.500000000, A.D. 2023-Sep-09 00:00:00.0000, -3.857745391233535E+08, -3.656678294132462E+08, -5.354813499177256E+07,
2460203.500000000, A.D. 2023-Sep-16 00:00:00.0000, -3.794575130715611E+08, -3.714816750515770E+08, -5.171459622141805E+07,
2460210.500000000, A.D. 2023-Sep-23 00:00:00.0000, -3.730192703339792E+08, -3.771768168245788E+08, -4.986452518970804E+07,
2460217.500000000, A.D. 2023-Sep-30 00:00:00.0000, -3.664613815627604E+08, -3.827509490551145E+08, -4.799844886373994E+07,
2460224.500000000, A.D. 2023-Oct-07 00:00:00.0000, -3.597854512082533E+08, -3.882017668629183E+08, -4.611690143504897E+07,
2460231.500000000, A.D. 2023-Oct-14 00:00:00.0000, -3.529931204669874E+08, -3.935269668566866E+08, -4.422042435599011E+07,
2460238.500000000, A.D. 2023-Oct-21 00:00:00.0000, -3.460860680830032E+08, -3.987242488024418E+08, -4.230956665656519E+07,
2460245.500000000, A.D. 2023-Oct-28 00:00:00.0000, -3.390660104275547E+08, -4.037913160093581E+08, -4.038488522601327E+07,
2460252.500000000, A.D. 2023-Nov-04 00:00:00.0000, -3.319347021072445E+08, -4.087258752043033E+08, -3.844694500699353E+07,
2460259.500000000, A.D. 2023-Nov-11 00:00:00.0000, -3.246939369226897E+08, -4.135256364961103E+08, -3.649631916723180E+07,
2460266.500000000, A.D. 2023-Nov-18 00:00:00.0000, -3.173455489579011E+08, -4.181883134955017E+08, -3.453358927368236E+07,
2460273.500000000, A.D. 2023-Nov-25 00:00:00.0000, -3.098914137274850E+08, -4.227116235700718E+08, -3.255934547377202E+07,
2460280.500000000, A.D. 2023-Dec-02 00:00:00.0000, -3.023334493536247E+08, -4.270932882475774E+08, -3.057418668697298E+07,
2460287.500000000, A.D. 2023-Dec-09 00:00:00.0000, -2.946736176951766E+08, -4.313310338284476E+08, -2.857872081841356E+07,
2460294.500000000, A.D. 2023-Dec-16 00:00:00.0000, -2.869139251414069E+08, -4.354225921969593E+08, -2.657356501965776E+07,
2460301.500000000, A.D. 2023-Dec-23 00:00:00.0000, -2.790564227218974E+08, -4.393657011456496E+08, -2.455934597227046E+07,
2460308.500000000, A.D. 2023-Dec-30 00:00:00.0000, -2.711032068725797E+08, -4.431581031655715E+08, -2.253669998535424E+07,
2460315.500000000, A.D. 2024-Jan-06 00:00:00.0000, -2.630564226296436E+08, -4.467975450651350E+08, -2.050627293736911E+07,
2460322.500000000, A.D. 2024-Jan-13 00:00:00.0000, -2.549182660781567E+08, -4.502817802274783E+08, -1.846872050099573E+07,
2460329.500000000, A.D. 2024-Jan-20 00:00:00.0000, -2.466909848322560E+08, -4.536085704250777E+08, -1.642470851119450E+07,
2460336.500000000, A.D. 2024-Jan-27 00:00:00.0000, -2.383768785760501E+08, -4.567756865417011E+08, -1.437491323688430E+07,
2460343.500000000, A.D. 2024-Feb-03 00:00:00.0000, -2.299783000933763E+08, -4.597809091518314E+08, -1.232002159417772E+07,
2460350.500000000, A.D. 2024-Feb-10 00:00:00.0000, -2.214976565080573E+08, -4.626220292499245E+08, -1.026073135010412E+07,
2460357.500000000, A.D. 2024-Feb-17 00:00:00.0000, -2.129374105941865E+08, -4.652968491231987E+08, -8.197751328654230E+06,
2460364.500000000, A.D. 2024-Feb-24 00:00:00.0000, -2.043000821183528E+08, -4.678031833557578E+08, -6.131801621063977E+06,
2460371.500000000, A.D. 2024-Mar-02 00:00:00.0000, -1.955882491825373E+08, -4.701388600002867E+08, -4.063613805515200E+06,
2460378.500000000, A.D. 2024-Mar-09 00:00:00.0000, -1.868045494275603E+08, -4.723017219845905E+08, -1.993931193852723E+06,
2460385.500000000, A.D. 2024-Mar-16 00:00:00.0000, -1.779516807010141E+08, -4.742896285601822E+08, 7.649087498518825E+04,
2460392.500000000, A.D. 2024-Mar-23 00:00:00.0000, -1.690324012926613E+08, -4.761004556877918E+08, 2.146884795570493E+06,
2460399.500000000, A.D. 2024-Mar-30 00:00:00.0000, -1.600495319773024E+08, -4.777320953895965E+08, 4.216470714706808E+06,
2460406.500000000, A.D. 2024-Apr-06 00:00:00.0000, -1.510059596069668E+08, -4.791824574387019E+08, 6.284456510265261E+06,
2460413.500000000, A.D. 2024-Apr-13 00:00:00.0000, -1.419046386989719E+08, -4.804494725534885E+08, 8.350037473522216E+06,
2460420.500000000, A.D. 2024-Apr-20 00:00:00.0000, -1.327485919699729E+08, -4.815310944244364E+08, 1.041239600199816E+07,
2460427.500000000, A.D. 2024-Apr-27 00:00:00.0000, -1.235409113307107E+08, -4.824253011385144E+08, 1.247070139708561E+07,
2460434.500000000, A.D. 2024-May-04 00:00:00.0000, -1.142847592507614E+08, -4.831300967079241E+08, 1.452410970198154E+07,
2460441.500000000, A.D. 2024-May-11 00:00:00.0000, -1.049833702517253E+08, -4.836435128083477E+08, 1.657176355084357E+07,
2460448.500000000, A.D. 2024-May-18 00:00:00.0000, -9.564005244321693E+07, -4.839636107085668E+08, 1.861279202458319E+07,
2460455.500000000, A.D. 2024-May-25 00:00:00.0000, -8.625818907299867E+07, -4.840884834023880E+08, 2.064631051173189E+07,
2460462.500000000, A.D. 2024-Jun-01 00:00:00.0000, -7.684124002738497E+07, -4.840162580043424E+08, 2.267142056565744E+07,
2460469.500000000, A.D. 2024-Jun-08 00:00:00.0000, -6.739274303140198E+07, -4.837450984360708E+08, 2.468720973526213E+07,
2460476.500000000, A.D. 2024-Jun-15 00:00:00.0000, -5.791631414469184E+07, -4.832732078620040E+08, 2.669275137875825E+07,
2460483.500000000, A.D. 2024-Jun-22 00:00:00.0000, -4.841564855334853E+07, -4.825988297024335E+08, 2.868710465046483E+07,
2460490.500000000, A.D. 2024-Jun-29 00:00:00.0000, -3.889452377329699E+07, -4.817202490474023E+08, 3.066931470803449E+07,
2460497.500000000, A.D. 2024-Jul-06 00:00:00.0000, -2.935680261298155E+07, -4.806357969458347E+08, 3.263841269716364E+07,
2460504.500000000, A.D. 2024-Jul-13 00:00:00.0000, -1.980643393863308E+07, -4.793438547506740E+08, 3.459341556765476E+07,
2460511.500000000, A.D. 2024-Jul-20 00:00:00.0000, -1.024745322054856E+07, -4.778428573763915E+08, 3.653332599891192E+07,
2460518.500000000, A.D. 2024-Jul-27 00:00:00.0000, -6.839835089175364E+05, -4.761312964327328E+08, 3.845713241871867E+07,
2460525.500000000, A.D. 2024-Aug-03 00:00:00.0000, 8.879763441638213E+06, -4.742077236135206E+08, 4.036380906170619E+07,
2460532.500000000, A.D. 2024-Aug-10 00:00:00.0000, 1.843948607304983E+07, -4.720707543482154E+08, 4.225231605398461E+07,
2460539.500000000, A.D. 2024-Aug-17 00:00:00.0000, 2.799079200694592E+07, -4.697190716971953E+08, 4.412159952338681E+07,
2460546.500000000, A.D. 2024-Aug-24 00:00:00.0000, 3.752919714806029E+07, -4.671514305155094E+08, 4.597059173304667E+07,
2460553.500000000, A.D. 2024-Aug-31 00:00:00.0000, 4.705012503452124E+07, -4.643666619492245E+08, 4.779821122501145E+07,
2460560.500000000, A.D. 2024-Sep-07 00:00:00.0000, 5.654890681195071E+07, -4.613636781406125E+08, 4.960336295328183E+07,
2460567.500000000, A.D. 2024-Sep-14 00:00:00.0000, 6.602078192834209E+07, -4.581414761485575E+08, 5.138493848263562E+07,
2460574.500000000, A.D. 2024-Sep-21 00:00:00.0000, 7.546089753290886E+07, -4.546991406727419E+08, 5.314181647584678E+07,
2460581.500000000, A.D. 2024-Sep-28 00:00:00.0000, 8.486430610420394E+07, -4.510358488088364E+08, 5.487286325290173E+07,
2460588.500000000, A.D. 2024-Oct-05 00:00:00.0000, 9.422596499117102E+07, -4.471508768322457E+08, 5.657693308855644E+07,
2460595.500000000, A.D. 2024-Oct-12 00:00:00.0000, 1.035407375207317E+08, -4.430436060293835E+08, 5.825286852792288E+07,
2460602.500000000, A.D. 2024-Oct-19 00:00:00.0000, 1.128033939355281E+08, -4.387135278445380E+08, 5.989950086145175E+07,
2460609.500000000, A.D. 2024-Oct-26 00:00:00.0000, 1.220086121454180E+08, -4.341602491391323E+08, 6.151565069944154E+07,
2460616.500000000, A.D. 2024-Nov-02 00:00:00.0000, 1.311509785678032E+08, -4.293834977065617E+08, 6.310012861312556E+07,
2460623.500000000, A.D. 2024-Nov-09 00:00:00.0000, 1.402249891722382E+08, -4.243831280167540E+08, 6.465173583836143E+07,
2460630.500000000, A.D. 2024-Nov-16 00:00:00.0000, 1.492250507743765E+08, -4.191591271847518E+08, 6.616926504316011E+07,
2460637.500000000, A.D. 2024-Nov-23 00:00:00.0000, 1.581454826453556E+08, -4.137116212067711E+08, 6.765150115448090E+07,
2460644.500000000, A.D. 2024-Nov-30 00:00:00.0000, 1.669805186641956E+08, -4.080408814985740E+08, 6.909722222565660E+07,
2460651.500000000, A.D. 2024-Dec-07 00:00:00.0000, 1.757243104519267E+08, -4.021473313061879E+08, 7.050520034436215E+07,
2460658.500000000, A.D. 2024-Dec-14 00:00:00.0000, 1.843709308178405E+08, -3.960315507537099E+08, 7.187420274812984E+07,
2460665.500000000, A.D. 2024-Dec-21 00:00:00.0000, 1.929143752179968E+08, -3.896942817546133E+08, 7.320299326184508E+07,
2460672.500000000, A.D. 2024-Dec-28 00:00:00.0000, 2.013485632178378E+08, -3.831364357362584E+08, 7.449033363634241E+07,
2460679.500000000, A.D. 2025-Jan-04 00:00:00.0000, 2.096673425768468E+08, -3.763591017826489E+08, 7.573498474683300E+07,
2460686.500000000, A.D. 2025-Jan-11 00:00:00.0000, 2.178644941546127E+08, -3.693635535160903E+08, 7.693570795695102E+07,
2460693.500000000, A.D. 2025-Jan-18 00:00:00.0000, 2.259337367411435E+08, -3.621512556148103E+08, 7.809126666026761E+07,
2460700.500000000, A.D. 2025-Jan-25 00:00:00.0000, 2.338687320740484E+08, -3.547238704167809E+08, 7.920042794059840E+07,
2460707.500000000, A.D. 2025-Feb-01 00:00:00.0000, 2.416630902504668E+08, -3.470832646131923E+08, 8.026196433334252E+07,
$$EOE